[{"OBJECT_NAME":"STARLINK-36654","OBJECT_ID":"2026-033T","EPOCH":"2026-03-09T22:26:11.605056","MEAN_MOTION":15.82085137,"ECCENTRICITY":0.00023144,"INCLINATION":42.9977,"RA_OF_ASC_NODE":269.8507,"ARG_OF_PERICENTER":255.4643,"MEAN_ANOMALY":104.5972,"EPHEMERIS_TYPE":0,"CLASSIFICATION_TYPE":"U","NORAD_CAT_ID":67838,"ELEMENT_SET_NO":999,"REV_AT_EPOCH":466,"BSTAR":0.0010808988,"MEAN_MOTION_DOT":0.0023409,"MEAN_MOTION_DDOT":0},{"OBJECT_NAME":"FENGYUN 1C DEB","OBJECT_ID":"1999-025CUE","EPOCH":"2026-02-18T09:12:07.487136","MEAN_MOTION":15.64460458,"ECCENTRICITY":0.00384301,"INCLINATION":98.1181,"RA_OF_ASC_NODE":202.4936,"ARG_OF_PERICENTER":104.8925,"MEAN_ANOMALY":255.6593,"EPHEMERIS_TYPE":0,"CLASSIFICATION_TYPE":"U","NORAD_CAT_ID":32184,"ELEMENT_SET_NO":999,"REV_AT_EPOCH":99453,"BSTAR":0.002023567,"MEAN_MOTION_DOT":0.00206139,"MEAN_MOTION_DDOT":0}]
